ONEWEB-0572             
1 55151U 23004M   26157.66045618 -.00000021  00000+0 -86231-4 0  9991
2 55151  87.9141   7.9596 0001821  92.5355 267.5985 13.17647114166095
ONEWEB-0573             
1 55152U 23004N   26158.25102422 -.00000067  00000+0 -20213-3 0  9992
2 55152  87.9157 337.4476 0001809 119.5581 240.5731 13.18685893168389
ONEWEB-0588             
1 55153U 23004P   26158.24427298 -.00000140  00000+0 -38793-3 0  9997
2 55153  87.9156 337.4494 0002230 100.4388 259.6995 13.18685010168386
ONEWEB-0598             
1 55154U 23004Q   26157.86019652  .00000182  00000+0  47675-3 0  9999
2 55154  87.8895  23.1245 0001299 105.5136 254.6135 13.11415365164542
ONEWEB-0599             
1 55155U 23004R   26158.00132820  .00000086  00000+0  18765-3 0  9991
2 55155  87.9143   7.8912 0001622  83.4640 276.6676 13.17648357166141
ONEWEB-0614             
1 55156U 23004S   26157.85510861  .00000348  00000+0  94472-3 0  9999
2 55156  87.8898  23.1341 0001984  83.5420 276.5934 13.11416312164482
ONEWEB-0616             
1 55157U 23004T   26158.27133027 -.00000098  00000+0 -28443-3 0  9991
2 55157  87.9146   7.8404 0001263  58.6461 301.4794 13.17649010166390
ONEWEB-0617             
1 55158U 23004U   26157.99584447  .00000362  00000+0  98438-3 0  9999
2 55158  87.8897  23.0966 0002204  90.6338 269.5042 13.11416801164528
ONEWEB-0618             
1 55159U 23004V   26158.00625170  .00005474  00000+0  30743-3 0  9996
2 55159  86.9100 181.7678 0010926 344.5778  15.5127 15.13066889180721
ONEWEB-0619             
1 55160U 23004W   26157.99964966 -.00000098  00000+0 -28612-3 0  9995
2 55160  87.9151   7.8745 0002169  77.2285 282.9089 13.17648294166253
ONEWEB-0620             
1 55161U 23004X   26157.60926264  .00000545  00000+0  15018-2 0  9993
2 55161  87.8895  23.1832 0001780  91.7102 268.4230 13.11419419164448
ONEWEB-0621             
1 55162U 23004Y   26157.86527707 -.00000078  00000+0 -25448-3 0  9993
2 55162  87.8906  23.1196 0002021  82.9956 277.1402 13.11415075164456
ONEWEB-0622             
1 55163U 23004Z   26157.87036419 -.00000241  00000+0 -71553-3 0  9990
2 55163  87.8906  23.1209 0002428  95.2141 264.9264 13.11415239164447
ONEWEB-0623             
1 55164U 23004AA  26157.99458237  .00000072  00000+0  15116-3 0  9993
2 55164  87.9139   7.9072 0002646  83.8424 276.3009 13.17649074166240
ONEWEB-0624             
1 55165U 23004AB  26158.28772454  .00000244  00000+0  63759-3 0  9994
2 55165  87.8949 352.5562 0001901  88.9208 271.2138 13.12928733166773
ONEWEB-0625             
1 55166U 23004AC  26158.28820744 -.00000072  00000+0 -21733-3 0  9998
2 55166  87.9142   7.8436 0001782  82.6306 277.5028 13.17648988166275
ONEWEB-0626             
1 55167U 23004AD  26158.27808747 -.00000062  00000+0 -19291-3 0  9992
2 55167  87.9142   7.8454 0001644  99.8134 260.3183 13.17649458166277
ONEWEB-0627             
1 55168U 23004AE  26157.65876776  .00000511  00000+0  12827-2 0  9995
2 55168  87.9149   7.9701 0002468  88.5942 271.5473 13.17647802166196
ONEWEB-0628             
1 55169U 23004AF  26158.26548529 -.00000316  00000+0 -91383-3 0  9996
2 55169  87.8947 352.6267 0002477  83.3951 276.7459 13.12444991166732
ONEWEB-0629             
1 55170U 23004AG  26157.86210928  .00000053  00000+0  10331-3 0  9992
2 55170  87.9140   7.9251 0001997  78.2060 281.9295 13.17650573166223
ONEWEB-0631             
1 55171U 23004AH  26158.23752769 -.00000110  00000+0 -31192-3 0  9993
2 55171  87.9166 337.4156 0002028 104.8849 255.2508 13.18685085168369
ONEWEB-0709             
1 55172U 23004AJ  26157.67538026  .00000178  00000+0  46623-3 0  9996
2 55172  87.8895  23.1724 0001333 108.4846 251.6427 13.11420571164493
ONEWEB-0710             
1 55173U 23004AK  26157.64865248 -.00000117  00000+0 -33493-3 0  9999
2 55173  87.9141   7.9626 0001972  88.6080 271.5278 13.17649443166199
ONEWEB-0711             
1 55174U 23004AL  26157.64656990 -.00000444  00000+0 -12881-2 0  9992
2 55174  87.8895  23.1643 0002513  87.9121 272.2295 13.11416558164451
ONEWEB-0713             
1 55175U 23004AM  26157.66520835 -.00000327  00000+0 -95918-3 0  9996
2 55175  87.8904  23.1631 0002173  86.8574 273.2803 13.11419523164442
ONEWEB-0715             
1 55176U 23004AN  26157.66012365 -.00000544  00000+0 -15702-2 0  9994
2 55176  87.8899  23.1646 0001675 108.1779 251.9532 13.11417510164483
ONEWEB-0716             
1 55177U 23004AP  26157.86971146 -.00000176  00000+0 -48524-3 0  9998
2 55177  87.9143   7.9213 0001650  80.3477 279.7841 13.17648750166229
ONEWEB-0717             
1 55178U 23004AQ  26158.00470347 -.00000225  00000+0 -61279-3 0  9990
2 55178  87.9149   7.8811 0002377  94.2930 265.8473 13.17649044166295
ONEWEB-0719             
1 55179U 23004AR  26157.63515593 -.00000188  00000+0 -51849-3 0  9992
2 55179  87.9147   7.9348 0001831  81.8655 278.2684 13.17648452166193
ONEWEB-0530             
1 55796U 23029A   26158.09003655 -.00000011  00000+0 -58924-4 0  9993
2 55796  87.9181 276.4825 0002357  95.6484 264.4918 13.20770189159811
