OBJECT_NAME,OBJECT_ID,EPOCH,MEAN_MOTION,ECCENTRICITY,INCLINATION,RA_OF_ASC_NODE,ARG_OF_PERICENTER,MEAN_ANOMALY,EPHEMERIS_TYPE,CLASSIFICATION_TYPE,NORAD_CAT_ID,ELEMENT_SET_NO,REV_AT_EPOCH,BSTAR,MEAN_MOTION_DOT,MEAN_MOTION_DDOT
ONEWEB-0572,2023-004M,2026-06-06T15:51:03.413952,13.17647114,.00018217,87.9141,7.9596,92.5355,267.5985,0,U,55151,999,16609,-.86231045E-4,-.21E-6,0
ONEWEB-0573,2023-004N,2026-06-07T06:01:28.492608,13.18685893,.00018092,87.9157,337.4476,119.5581,240.5731,0,U,55152,999,16838,-.20213151E-3,-.67E-6,0
ONEWEB-0588,2023-004P,2026-06-07T05:51:45.185472,13.18685010,.00022309,87.9156,337.4494,100.4388,259.6995,0,U,55153,999,16838,-.38792919E-3,-.14E-5,0
ONEWEB-0598,2023-004Q,2026-06-06T20:38:40.979328,13.11415365,.00012991,87.8895,23.1245,105.5136,254.6135,0,U,55154,999,16454,.47675209E-3,.182E-5,0
ONEWEB-0599,2023-004R,2026-06-07T00:01:54.756480,13.17648357,.0001622,87.9143,7.8912,83.4640,276.6676,0,U,55155,999,16614,.18764657E-3,.86E-6,0
ONEWEB-0614,2023-004S,2026-06-06T20:31:21.383904,13.11416312,.00019846,87.8898,23.1341,83.5420,276.5934,0,U,55156,999,16448,.94471637E-3,.348E-5,0
ONEWEB-0616,2023-004T,2026-06-07T06:30:42.935328,13.17649010,.00012635,87.9146,7.8404,58.6461,301.4794,0,U,55157,999,16639,-.28443414E-3,-.98E-6,0
ONEWEB-0617,2023-004U,2026-06-06T23:54:00.962208,13.11416801,.0002204,87.8897,23.0966,90.6338,269.5042,0,U,55158,999,16452,.9843788E-3,.362E-5,0
ONEWEB-0618,2023-004V,2026-06-07T00:09:00.146880,15.13066889,.00109265,86.9100,181.7678,344.5778,15.5127,0,U,55159,999,18072,.30743497E-3,.5474E-4,0
ONEWEB-0619,2023-004W,2026-06-06T23:59:29.730624,13.17648294,.00021697,87.9151,7.8745,77.2285,282.9089,0,U,55160,999,16625,-.28612413E-3,-.98E-6,0
ONEWEB-0620,2023-004X,2026-06-06T14:37:20.292096,13.11419419,.00017809,87.8895,23.1832,91.7102,268.4230,0,U,55161,999,16444,.15018247E-2,.545E-5,0
ONEWEB-0621,2023-004Y,2026-06-06T20:45:59.938848,13.11415075,.00020212,87.8906,23.1196,82.9956,277.1402,0,U,55162,999,16445,-.2544837E-3,-.78E-6,0
ONEWEB-0622,2023-004Z,2026-06-06T20:53:19.466016,13.11415239,.00024281,87.8906,23.1209,95.2141,264.9264,0,U,55163,999,16444,-.71552903E-3,-.241E-5,0
ONEWEB-0623,2023-004AA,2026-06-06T23:52:11.916768,13.17649074,.00026468,87.9139,7.9072,83.8424,276.3009,0,U,55164,999,16624,.15115927E-3,.72E-6,0
ONEWEB-0624,2023-004AB,2026-06-07T06:54:19.400256,13.12928733,.0001901,87.8949,352.5562,88.9208,271.2138,0,U,55165,999,16677,.63759314E-3,.244E-5,0
ONEWEB-0625,2023-004AC,2026-06-07T06:55:01.122816,13.17648988,.00017825,87.9142,7.8436,82.6306,277.5028,0,U,55166,999,16627,-.21733415E-3,-.72E-6,0
ONEWEB-0626,2023-004AD,2026-06-07T06:40:26.757408,13.17649458,.00016445,87.9142,7.8454,99.8134,260.3183,0,U,55167,999,16627,-.19291094E-3,-.62E-6,0
ONEWEB-0627,2023-004AE,2026-06-06T15:48:37.534464,13.17647802,.00024684,87.9149,7.9701,88.5942,271.5473,0,U,55168,999,16619,.12827074E-2,.511E-5,0
ONEWEB-0628,2023-004AF,2026-06-07T06:22:17.929056,13.12444991,.00024776,87.8947,352.6267,83.3951,276.7459,0,U,55169,999,16673,-.91383454E-3,-.316E-5,0
ONEWEB-0629,2023-004AG,2026-06-06T20:41:26.241792,13.17650573,.00019973,87.9140,7.9251,78.2060,281.9295,0,U,55170,999,16622,.10330805E-3,.53E-6,0
ONEWEB-0631,2023-004AH,2026-06-07T05:42:02.392416,13.18685085,.00020288,87.9166,337.4156,104.8849,255.2508,0,U,55171,999,16836,-.31192464E-3,-.11E-5,0
ONEWEB-0709,2023-004AJ,2026-06-06T16:12:32.854464,13.11420571,.00013339,87.8895,23.1724,108.4846,251.6427,0,U,55172,999,16449,.46622712E-3,.178E-5,0
ONEWEB-0710,2023-004AK,2026-06-06T15:34:03.574272,13.17649443,.00019721,87.9141,7.9626,88.6080,271.5278,0,U,55173,999,16619,-.33492608E-3,-.117E-5,0
ONEWEB-0711,2023-004AL,2026-06-06T15:31:03.639360,13.11416558,.00025131,87.8895,23.1643,87.9121,272.2295,0,U,55174,999,16445,-.12880615E-2,-.444E-5,0
ONEWEB-0713,2023-004AM,2026-06-06T15:57:54.001440,13.11419523,.00021735,87.8904,23.1631,86.8574,273.2803,0,U,55175,999,16444,-.95918297E-3,-.327E-5,0
ONEWEB-0715,2023-004AN,2026-06-06T15:50:34.683360,13.11417510,.00016759,87.8899,23.1646,108.1779,251.9532,0,U,55176,999,16448,-.15702336E-2,-.544E-5,0
ONEWEB-0716,2023-004AP,2026-06-06T20:52:23.070144,13.17648750,.00016506,87.9143,7.9213,80.3477,279.7841,0,U,55177,999,16622,-.48523881E-3,-.176E-5,0
ONEWEB-0717,2023-004AQ,2026-06-07T00:06:46.379808,13.17649044,.00023771,87.9149,7.8811,94.2930,265.8473,0,U,55178,999,16629,-.61279152E-3,-.225E-5,0
ONEWEB-0719,2023-004AR,2026-06-06T15:14:37.472352,13.17648452,.0001831,87.9147,7.9348,81.8655,278.2684,0,U,55179,999,16619,-.51849041E-3,-.188E-5,0
ONEWEB-0530,2023-029A,2026-06-07T02:09:39.157920,13.20770189,.00023571,87.9181,276.4825,95.6484,264.4918,0,U,55796,999,15981,-.58924199E-4,-.11E-6,0
